*******************************************************************************
Ephemeris / WWW_USER Mon Jul 15 19:32:56 2024 Pasadena, USA      / Horizons    
*******************************************************************************
Target body name: (2015 BP519)                    {source: JPL#11}
Center body name: Earth (399)                     {source: DE441}
Center-site name: Gemini South Obs., Cerro Pachon
*******************************************************************************
Start time      : A.D. 2019-Jan-16 23:57:00.0000 UT      
Stop  time      : A.D. 2019-Jan-17 09:48:00.0000 UT      
Step-size       : 1 minutes
*******************************************************************************
Target pole/equ : undefined
Target radii    : undefined                                                    
Center geodetic : 289.2634, -30.2406227, 2.71233  {E-lon(deg),Lat(deg),Alt(km)}
Center cylindric: 289.2634,5517.21435,-3194.81213 {E-lon(deg),Dxy(km),Dz(km)}
Center pole/equ : ITRF93                          {East-longitude positive}
Center radii    : 6378.137, 6378.137, 6356.752 km {Equator_a, b, pole_c}       
Target primary  : Sun
Vis. interferer : MOON (R_eq= 1737.400) km        {source: DE441}
Rel. light bend : Sun                             {source: DE441}
Rel. lght bnd GM: 1.3271E+11 km^3/s^2                                          
Small-body perts: Yes                             {source: SB441-N16}
Atmos refraction: NO (AIRLESS)
RA format       : HMS
Time format     : CAL 
Calendar mode   : Mixed Julian/Gregorian
RTS-only print  : NO       
EOP file        : eop.240715.p241008                                           
EOP coverage    : DATA-BASED 1962-JAN-20 TO 2024-JUL-15. PREDICTS-> 2024-OCT-07
Units conversion: 1 au= 149597870.700 km, c= 299792.458 km/s, 1 day= 86400.0 s 
Table cut-offs 1: Elevation (-90.0deg=NO ),Airmass (>38.000=NO), Daylight (YES)
Table cut-offs 2: Solar elongation (  0.0,180.0=NO ),Local Hour Angle( 0.0=NO )
Table cut-offs 3: RA/DEC angular rate (     0.0=NO )                           
*******************************************************************************
Initial IAU76/J2000 heliocentric ecliptic osculating elements (au, days, deg.):
  EPOCH=  2459185.5 ! 2020-Dec-02.00 (TDB)         Residual RMS= .076636       
   EC= .9196800569382362   QR= 35.27062259520413   TP= 2473034.2681888649      
   OM= 135.0361763364557   W=  348.1354702472351   IN= 54.13300168900849       
  Equivalent ICRF heliocentric cartesian coordinates (au, au/d):
   X= 1.527332710437156E+01  Y= 4.057000090505051E+01  Z=-2.695001507835700E+01
  VX=-2.654302427537234E-03 VY= 4.512065776218028E-05 VZ= 1.968031006040699E-03
Asteroid physical parameters (km, seconds, rotational period in hours):        
   GM= n.a.                RAD= n.a.               ROTPER= n.a.                
   H= 4.34                 G= .150                 B-V= n.a.                   
                           ALBEDO= n.a.            STYP= n.a.                  
*******************************************************************************
 Date__(UT)__HR:MN     R.A._________(ICRF)_________DEC
******************************************************
$$SOE
 2019-Jan-17 06:06  m  04 24 45.943045 -33 24 37.33470
 2019-Jan-17 06:07  m  04 24 45.941047 -33 24 37.30485
 2019-Jan-17 06:08  m  04 24 45.939048 -33 24 37.27499
 2019-Jan-17 06:09  m  04 24 45.937050 -33 24 37.24513
 2019-Jan-17 06:10  m  04 24 45.935052 -33 24 37.21528
 2019-Jan-17 06:11  m  04 24 45.933055 -33 24 37.18542
 2019-Jan-17 06:12  m  04 24 45.931057 -33 24 37.15556
 2019-Jan-17 06:13  m  04 24 45.929060 -33 24 37.12570
 2019-Jan-17 06:14  m  04 24 45.927063 -33 24 37.09584
 2019-Jan-17 06:15  m  04 24 45.925067 -33 24 37.06598
 2019-Jan-17 06:16  m  04 24 45.923070 -33 24 37.03611
 2019-Jan-17 06:17  m  04 24 45.921074 -33 24 37.00625
 2019-Jan-17 06:18  m  04 24 45.919078 -33 24 36.97639
 2019-Jan-17 06:19  m  04 24 45.917082 -33 24 36.94652
 2019-Jan-17 06:20  m  04 24 45.915087 -33 24 36.91666
 2019-Jan-17 06:21  m  04 24 45.913092 -33 24 36.88679
 2019-Jan-17 06:22  m  04 24 45.911097 -33 24 36.85692
 2019-Jan-17 06:23  m  04 24 45.909102 -33 24 36.82706
 2019-Jan-17 06:24  m  04 24 45.907108 -33 24 36.79719
 2019-Jan-17 06:25  m  04 24 45.905114 -33 24 36.76732
 2019-Jan-17 06:26  m  04 24 45.903120 -33 24 36.73745
 2019-Jan-17 06:27  m  04 24 45.901126 -33 24 36.70758
 2019-Jan-17 06:28  m  04 24 45.899133 -33 24 36.67771
 2019-Jan-17 06:29  m  04 24 45.897140 -33 24 36.64783
 2019-Jan-17 06:30  m  04 24 45.895147 -33 24 36.61796
 2019-Jan-17 06:31  m  04 24 45.893154 -33 24 36.58809
 2019-Jan-17 06:32  m  04 24 45.891162 -33 24 36.55821
 2019-Jan-17 06:33     04 24 45.889169 -33 24 36.52834
 2019-Jan-17 06:34     04 24 45.887178 -33 24 36.49846
 2019-Jan-17 06:35     04 24 45.885186 -33 24 36.46858
 2019-Jan-17 06:36     04 24 45.883195 -33 24 36.43871
 2019-Jan-17 06:37     04 24 45.881203 -33 24 36.40883
 2019-Jan-17 06:38     04 24 45.879213 -33 24 36.37895
 2019-Jan-17 06:39     04 24 45.877222 -33 24 36.34907
 2019-Jan-17 06:40     04 24 45.875232 -33 24 36.31919
 2019-Jan-17 06:41     04 24 45.873242 -33 24 36.28931
 2019-Jan-17 06:42     04 24 45.871252 -33 24 36.25943
 2019-Jan-17 06:43     04 24 45.869262 -33 24 36.22955
 2019-Jan-17 06:44     04 24 45.867273 -33 24 36.19967
 2019-Jan-17 06:45     04 24 45.865284 -33 24 36.16978
 2019-Jan-17 06:46     04 24 45.863295 -33 24 36.13990
 2019-Jan-17 06:47     04 24 45.861306 -33 24 36.11002
 2019-Jan-17 06:48     04 24 45.859318 -33 24 36.08013
 2019-Jan-17 06:49     04 24 45.857330 -33 24 36.05025
 2019-Jan-17 06:50     04 24 45.855342 -33 24 36.02036
 2019-Jan-17 06:51     04 24 45.853355 -33 24 35.99047
 2019-Jan-17 06:52     04 24 45.851367 -33 24 35.96059
 2019-Jan-17 06:53     04 24 45.849380 -33 24 35.93070
 2019-Jan-17 06:54     04 24 45.847393 -33 24 35.90081
 2019-Jan-17 06:55     04 24 45.845407 -33 24 35.87092
 2019-Jan-17 06:56     04 24 45.843421 -33 24 35.84103
 2019-Jan-17 06:57     04 24 45.841435 -33 24 35.81114
 2019-Jan-17 06:58     04 24 45.839449 -33 24 35.78125
 2019-Jan-17 06:59     04 24 45.837464 -33 24 35.75136
 2019-Jan-17 07:00     04 24 45.835478 -33 24 35.72147
 2019-Jan-17 07:01     04 24 45.833493 -33 24 35.69158
 2019-Jan-17 07:02     04 24 45.831509 -33 24 35.66168
 2019-Jan-17 07:03     04 24 45.829524 -33 24 35.63179
 2019-Jan-17 07:04     04 24 45.827540 -33 24 35.60190
 2019-Jan-17 07:05     04 24 45.825556 -33 24 35.57200
 2019-Jan-17 07:06     04 24 45.823572 -33 24 35.54211
 2019-Jan-17 07:07     04 24 45.821589 -33 24 35.51222
 2019-Jan-17 07:08     04 24 45.819606 -33 24 35.48232
 2019-Jan-17 07:09     04 24 45.817623 -33 24 35.45242
 2019-Jan-17 07:10     04 24 45.815640 -33 24 35.42253
 2019-Jan-17 07:11     04 24 45.813658 -33 24 35.39263
 2019-Jan-17 07:12     04 24 45.811676 -33 24 35.36273
 2019-Jan-17 07:13     04 24 45.809694 -33 24 35.33284
 2019-Jan-17 07:14     04 24 45.807712 -33 24 35.30294
 2019-Jan-17 07:15     04 24 45.805731 -33 24 35.27304
 2019-Jan-17 07:16     04 24 45.803750 -33 24 35.24314
 2019-Jan-17 07:17     04 24 45.801769 -33 24 35.21324
 2019-Jan-17 07:18     04 24 45.799788 -33 24 35.18334
 2019-Jan-17 07:19     04 24 45.797808 -33 24 35.15344
 2019-Jan-17 07:20     04 24 45.795828 -33 24 35.12354
 2019-Jan-17 07:21     04 24 45.793848 -33 24 35.09364
 2019-Jan-17 07:22     04 24 45.791869 -33 24 35.06374
 2019-Jan-17 07:23     04 24 45.789889 -33 24 35.03384
 2019-Jan-17 07:24     04 24 45.787910 -33 24 35.00394
 2019-Jan-17 07:25     04 24 45.785932 -33 24 34.97404
 2019-Jan-17 07:26     04 24 45.783953 -33 24 34.94413
 2019-Jan-17 07:27     04 24 45.781975 -33 24 34.91423
 2019-Jan-17 07:28     04 24 45.779997 -33 24 34.88433
 2019-Jan-17 07:29     04 24 45.778019 -33 24 34.85442
 2019-Jan-17 07:30     04 24 45.776042 -33 24 34.82452
 2019-Jan-17 07:31     04 24 45.774065 -33 24 34.79462
 2019-Jan-17 07:32     04 24 45.772088 -33 24 34.76471
 2019-Jan-17 07:33     04 24 45.770111 -33 24 34.73481
 2019-Jan-17 07:34     04 24 45.768134 -33 24 34.70490
 2019-Jan-17 07:35     04 24 45.766158 -33 24 34.67500
 2019-Jan-17 07:36     04 24 45.764182 -33 24 34.64509
 2019-Jan-17 07:37     04 24 45.762207 -33 24 34.61519
 2019-Jan-17 07:38     04 24 45.760231 -33 24 34.58528
 2019-Jan-17 07:39     04 24 45.758256 -33 24 34.55537
 2019-Jan-17 07:40     04 24 45.756281 -33 24 34.52547
 2019-Jan-17 07:41     04 24 45.754307 -33 24 34.49556
 2019-Jan-17 07:42     04 24 45.752332 -33 24 34.46565
 2019-Jan-17 07:43     04 24 45.750358 -33 24 34.43575
 2019-Jan-17 07:44     04 24 45.748384 -33 24 34.40584
 2019-Jan-17 07:45     04 24 45.746411 -33 24 34.37593
 2019-Jan-17 07:46     04 24 45.744437 -33 24 34.34602
 2019-Jan-17 07:47     04 24 45.742464 -33 24 34.31612
 2019-Jan-17 07:48     04 24 45.740492 -33 24 34.28621
 2019-Jan-17 07:49     04 24 45.738519 -33 24 34.25630
 2019-Jan-17 07:50     04 24 45.736547 -33 24 34.22639
 2019-Jan-17 07:51     04 24 45.734575 -33 24 34.19648
 2019-Jan-17 07:52     04 24 45.732603 -33 24 34.16657
 2019-Jan-17 07:53     04 24 45.730631 -33 24 34.13666
 2019-Jan-17 07:54     04 24 45.728660 -33 24 34.10675
 2019-Jan-17 07:55     04 24 45.726689 -33 24 34.07684
 2019-Jan-17 07:56     04 24 45.724718 -33 24 34.04693
 2019-Jan-17 07:57     04 24 45.722748 -33 24 34.01703
 2019-Jan-17 07:58     04 24 45.720778 -33 24 33.98712
 2019-Jan-17 07:59     04 24 45.718808 -33 24 33.95721
 2019-Jan-17 08:00     04 24 45.716838 -33 24 33.92730
 2019-Jan-17 08:01     04 24 45.714868 -33 24 33.89739
 2019-Jan-17 08:02     04 24 45.712899 -33 24 33.86747
 2019-Jan-17 08:03     04 24 45.710930 -33 24 33.83756
 2019-Jan-17 08:04     04 24 45.708962 -33 24 33.80765
 2019-Jan-17 08:05     04 24 45.706993 -33 24 33.77774
 2019-Jan-17 08:06     04 24 45.705025 -33 24 33.74783
 2019-Jan-17 08:07     04 24 45.703057 -33 24 33.71792
 2019-Jan-17 08:08     04 24 45.701089 -33 24 33.68801
